CCSDS_OMM_VERS = 2.0
CREATION_DATE  = 
ORIGINATOR     = 

OBJECT_NAME    = ATLAS CENTAUR R/B
OBJECT_ID      = 1972-065B
CENTER_NAME    = EARTH
REF_FRAME      = TEME
TIME_SYSTEM    = UTC
MEAN_ELEMENT_THEORY = SGP/SGP4

EPOCH          = 2025-12-09T01:52:17.384736
MEAN_MOTION    = 14.77392032
ECCENTRICITY   = .00343244
INCLINATION    = 35.0006
RA_OF_ASC_NODE = 116.6465
ARG_OF_PERICENTER = 327.0367
MEAN_ANOMALY   = 32.8195

EPHEMERIS_TYPE = 0
CLASSIFICATION_TYPE = U
NORAD_CAT_ID   = 6155
ELEMENT_SET_NO = 999
REV_AT_EPOCH   = 82785
BSTAR          = .2601443E-3
MEAN_MOTION_DOT = .1876E-4
MEAN_MOTION_DDOT = 0

CCSDS_OMM_VERS = 2.0
CREATION_DATE  = 
ORIGINATOR     = 

OBJECT_NAME    = SL-8 R/B
OBJECT_ID      = 1975-112B
CENTER_NAME    = EARTH
REF_FRAME      = TEME
TIME_SYSTEM    = UTC
MEAN_ELEMENT_THEORY = SGP/SGP4

EPOCH          = 2025-12-09T06:47:22.378560
MEAN_MOTION    = 14.38142014
ECCENTRICITY   = .00165505
INCLINATION    = 74.0594
RA_OF_ASC_NODE = 185.2167
ARG_OF_PERICENTER = 296.9133
MEAN_ANOMALY   = 63.0330

EPHEMERIS_TYPE = 0
CLASSIFICATION_TYPE = U
NORAD_CAT_ID   = 8459
ELEMENT_SET_NO = 999
REV_AT_EPOCH   = 61887
BSTAR          = .1731602E-3
MEAN_MOTION_DOT = .5E-5
MEAN_MOTION_DDOT = 0

CCSDS_OMM_VERS = 2.0
CREATION_DATE  = 
ORIGINATOR     = 

OBJECT_NAME    = SL-3 R/B
OBJECT_ID      = 1977-057B
CENTER_NAME    = EARTH
REF_FRAME      = TEME
TIME_SYSTEM    = UTC
MEAN_ELEMENT_THEORY = SGP/SGP4

EPOCH          = 2025-12-09T06:05:31.267104
MEAN_MOTION    = 15.42817113
ECCENTRICITY   = .00064051
INCLINATION    = 97.5687
RA_OF_ASC_NODE = 146.4466
ARG_OF_PERICENTER = 247.3008
MEAN_ANOMALY   = 112.7563

EPHEMERIS_TYPE = 0
CLASSIFICATION_TYPE = U
NORAD_CAT_ID   = 10114
ELEMENT_SET_NO = 999
REV_AT_EPOCH   = 65437
BSTAR          = .37649148E-3
MEAN_MOTION_DOT = .16426E-3
MEAN_MOTION_DDOT = 0

CCSDS_OMM_VERS = 2.0
CREATION_DATE  = 
ORIGINATOR     = 

OBJECT_NAME    = SEASAT 1
OBJECT_ID      = 1978-064A
CENTER_NAME    = EARTH
REF_FRAME      = TEME
TIME_SYSTEM    = UTC
MEAN_ELEMENT_THEORY = SGP/SGP4

EPOCH          = 2025-12-08T19:24:03.422016
MEAN_MOTION    = 14.46055856
ECCENTRICITY   = .00017261
INCLINATION    = 108.0109
RA_OF_ASC_NODE = 294.7861
ARG_OF_PERICENTER = 249.7818
MEAN_ANOMALY   = 110.3142

EPHEMERIS_TYPE = 0
CLASSIFICATION_TYPE = U
NORAD_CAT_ID   = 10967
ELEMENT_SET_NO = 999
REV_AT_EPOCH   = 49337
BSTAR          = .30826717E-3
MEAN_MOTION_DOT = .964E-5
MEAN_MOTION_DDOT = 0

CCSDS_OMM_VERS = 2.0
CREATION_DATE  = 
ORIGINATOR     = 

OBJECT_NAME    = SL-14 R/B
OBJECT_ID      = 1979-011B
CENTER_NAME    = EARTH
REF_FRAME      = TEME
TIME_SYSTEM    = UTC
MEAN_ELEMENT_THEORY = SGP/SGP4

EPOCH          = 2025-12-09T07:12:06.607008
MEAN_MOTION    = 14.91763760
ECCENTRICITY   = .00162286
INCLINATION    = 82.5237
RA_OF_ASC_NODE = 182.3065
ARG_OF_PERICENTER = 4.9465
MEAN_ANOMALY   = 355.1911

EPHEMERIS_TYPE = 0
CLASSIFICATION_TYPE = U
NORAD_CAT_ID   = 11267
ELEMENT_SET_NO = 999
REV_AT_EPOCH   = 51530
BSTAR          = .95528012E-4
MEAN_MOTION_DOT = .99E-5
MEAN_MOTION_DDOT = 0

CCSDS_OMM_VERS = 2.0
CREATION_DATE  = 
ORIGINATOR     = 

OBJECT_NAME    = SL-8 R/B
OBJECT_ID      = 1979-089B
CENTER_NAME    = EARTH
REF_FRAME      = TEME
TIME_SYSTEM    = UTC
MEAN_ELEMENT_THEORY = SGP/SGP4

EPOCH          = 2025-12-09T05:30:22.509216
MEAN_MOTION    = 14.42280420
ECCENTRICITY   = .00144355
INCLINATION    = 74.0694
RA_OF_ASC_NODE = 258.4757
ARG_OF_PERICENTER = 94.3743
MEAN_ANOMALY   = 265.9063

EPHEMERIS_TYPE = 0
CLASSIFICATION_TYPE = U
NORAD_CAT_ID   = 11574
ELEMENT_SET_NO = 999
REV_AT_EPOCH   = 42306
BSTAR          = .19019816E-3
MEAN_MOTION_DOT = .602E-5
MEAN_MOTION_DDOT = 0

CCSDS_OMM_VERS = 2.0
CREATION_DATE  = 
ORIGINATOR     = 

OBJECT_NAME    = SL-14 R/B
OBJECT_ID      = 1980-005B
CENTER_NAME    = EARTH
REF_FRAME      = TEME
TIME_SYSTEM    = UTC
MEAN_ELEMENT_THEORY = SGP/SGP4

EPOCH          = 2025-12-09T06:05:28.101408
MEAN_MOTION    = 14.90786065
ECCENTRICITY   = .00172957
INCLINATION    = 82.5153
RA_OF_ASC_NODE = 33.0055
ARG_OF_PERICENTER = 104.0406
MEAN_ANOMALY   = 256.2738

EPHEMERIS_TYPE = 0
CLASSIFICATION_TYPE = U
NORAD_CAT_ID   = 11672
ELEMENT_SET_NO = 999
REV_AT_EPOCH   = 46301
BSTAR          = .10407188E-3
MEAN_MOTION_DOT = .1051E-4
MEAN_MOTION_DDOT = 0

CCSDS_OMM_VERS = 2.0
CREATION_DATE  = 
ORIGINATOR     = 

OBJECT_NAME    = SL-8 R/B
OBJECT_ID      = 1981-003B
CENTER_NAME    = EARTH
REF_FRAME      = TEME
TIME_SYSTEM    = UTC
MEAN_ELEMENT_THEORY = SGP/SGP4

EPOCH          = 2025-12-09T03:38:46.617216
MEAN_MOTION    = 15.06878861
ECCENTRICITY   = .02801656
INCLINATION    = 82.9284
RA_OF_ASC_NODE = 13.5052
ARG_OF_PERICENTER = 132.5717
MEAN_ANOMALY   = 229.9531

EPHEMERIS_TYPE = 0
CLASSIFICATION_TYPE = U
NORAD_CAT_ID   = 12139
ELEMENT_SET_NO = 999
REV_AT_EPOCH   = 30102
BSTAR          = .49172351E-3
MEAN_MOTION_DOT = .18518E-3
MEAN_MOTION_DDOT = 0

CCSDS_OMM_VERS = 2.0
CREATION_DATE  = 
ORIGINATOR     = 

OBJECT_NAME    = SL-3 R/B
OBJECT_ID      = 1981-046B
CENTER_NAME    = EARTH
REF_FRAME      = TEME
TIME_SYSTEM    = UTC
MEAN_ELEMENT_THEORY = SGP/SGP4

EPOCH          = 2025-12-09T05:59:32.594784
MEAN_MOTION    = 15.39496414
ECCENTRICITY   = .00191054
INCLINATION    = 81.2329
RA_OF_ASC_NODE = 38.1126
ARG_OF_PERICENTER = 336.8910
MEAN_ANOMALY   = 23.1470

EPHEMERIS_TYPE = 0
CLASSIFICATION_TYPE = U
NORAD_CAT_ID   = 12465
ELEMENT_SET_NO = 999
REV_AT_EPOCH   = 42450
BSTAR          = .35110203E-3
MEAN_MOTION_DOT = .139E-3
MEAN_MOTION_DDOT = 0

CCSDS_OMM_VERS = 2.0
CREATION_DATE  = 
ORIGINATOR     = 

OBJECT_NAME    = SL-3 R/B
OBJECT_ID      = 1981-103B
CENTER_NAME    = EARTH
REF_FRAME      = TEME
TIME_SYSTEM    = UTC
MEAN_ELEMENT_THEORY = SGP/SGP4

EPOCH          = 2025-12-09T07:16:32.013984
MEAN_MOTION    = 15.20165063
ECCENTRICITY   = .00113403
INCLINATION    = 81.1590
RA_OF_ASC_NODE = 319.3782
ARG_OF_PERICENTER = 225.9525
MEAN_ANOMALY   = 134.0773

EPHEMERIS_TYPE = 0
CLASSIFICATION_TYPE = U
NORAD_CAT_ID   = 12904
ELEMENT_SET_NO = 999
REV_AT_EPOCH   = 95949
BSTAR          = .40005054E-3
MEAN_MOTION_DOT = .8697E-4
MEAN_MOTION_DDOT = 0

CCSDS_OMM_VERS = 2.0
CREATION_DATE  = 
ORIGINATOR     = 

OBJECT_NAME    = SL-3 R/B
OBJECT_ID      = 1982-013B
CENTER_NAME    = EARTH
REF_FRAME      = TEME
TIME_SYSTEM    = UTC
MEAN_ELEMENT_THEORY = SGP/SGP4

EPOCH          = 2025-12-09T06:55:19.969248
MEAN_MOTION    = 15.21033408
ECCENTRICITY   = .0024008
INCLINATION    = 81.1748
RA_OF_ASC_NODE = 266.6486
ARG_OF_PERICENTER = 121.6624
MEAN_ANOMALY   = 238.6954

EPHEMERIS_TYPE = 0
CLASSIFICATION_TYPE = U
NORAD_CAT_ID   = 13068
ELEMENT_SET_NO = 999
REV_AT_EPOCH   = 39060
BSTAR          = .29467677E-3
MEAN_MOTION_DOT = .6616E-4
MEAN_MOTION_DDOT = 0

CCSDS_OMM_VERS = 2.0
CREATION_DATE  = 
ORIGINATOR     = 

OBJECT_NAME    = SL-3 R/B
OBJECT_ID      = 1982-039B
CENTER_NAME    = EARTH
REF_FRAME      = TEME
TIME_SYSTEM    = UTC
MEAN_ELEMENT_THEORY = SGP/SGP4

EPOCH          = 2025-12-09T06:12:27.889632
MEAN_MOTION    = 15.09493047
ECCENTRICITY   = .00298623
INCLINATION    = 81.1728
RA_OF_ASC_NODE = 320.1015
ARG_OF_PERICENTER = 264.1846
MEAN_ANOMALY   = 95.5975

EPHEMERIS_TYPE = 0
CLASSIFICATION_TYPE = U
NORAD_CAT_ID   = 13154
ELEMENT_SET_NO = 999
REV_AT_EPOCH   = 36799
BSTAR          = .29266623E-3
MEAN_MOTION_DOT = .4759E-4
MEAN_MOTION_DDOT = 0

