ATLAS CENTAUR R/B       
1 06155U 72065B   25343.07797899  .00001876  00000+0  26014-3 0  9997
2 06155  35.0006 116.6465 0034324 327.0367  32.8195 14.77392032827852
SL-8 R/B                
1 08459U 75112B   25343.28289790  .00000500  00000+0  17316-3 0  9999
2 08459  74.0594 185.2167 0016550 296.9133  63.0330 14.38142014618870
SL-3 R/B                
1 10114U 77057B   25343.25383411  .00016426  00000+0  37649-3 0  9997
2 10114  97.5687 146.4466 0006405 247.3008 112.7563 15.42817113654374
SEASAT 1                
1 10967U 78064A   25342.80837294  .00000964  00000+0  30827-3 0  9996
2 10967 108.0109 294.7861 0001726 249.7818 110.3142 14.46055856493378
SL-14 R/B               
1 11267U 79011B   25343.30007647  .00000990  00000+0  95528-4 0  9999
2 11267  82.5237 182.3065 0016228   4.9465 355.1911 14.91763760515301
SL-8 R/B                
1 11574U 79089B   25343.22942719  .00000602  00000+0  19020-3 0  9996
2 11574  74.0694 258.4757 0014435  94.3743 265.9063 14.42280420423068
SL-14 R/B               
1 11672U 80005B   25343.25379747  .00001051  00000+0  10407-3 0  9992
2 11672  82.5153  33.0055 0017295 104.0406 256.2738 14.90786065463011
SL-8 R/B                
1 12139U 81003B   25343.15192844  .00018518  00000+0  49172-3 0  9997
2 12139  82.9284  13.5052 0280165 132.5717 229.9531 15.06878861301022
SL-3 R/B                
1 12465U 81046B   25343.24968281  .00013900  00000+0  35110-3 0  9999
2 12465  81.2329  38.1126 0019105 336.8910  23.1470 15.39496414424500
SL-3 R/B                
1 12904U 81103B   25343.30314831  .00008697  00000+0  40005-3 0  9990
2 12904  81.1590 319.3782 0011340 225.9525 134.0773 15.20165063959494
SL-3 R/B                
1 13068U 82013B   25343.28842557  .00006616  00000+0  29468-3 0  9990
2 13068  81.1748 266.6486 0024008 121.6624 238.6954 15.21033408390605
SL-3 R/B                
1 13154U 82039B   25343.25865613  .00004759  00000+0  29267-3 0  9992
2 13154  81.1728 320.1015 0029862 264.1846  95.5975 15.09493047367999
